GLOBALSTAR M024         
1 25883U 99043A   25308.64604360 -.00000110  00000+0 -16059-2 0  9994
2 25883  52.0030  63.6929 0000773 357.8600  14.9814 11.10170567130469
GLOBALSTAR M027         
1 25884U 99043B   25308.79024327 -.00000015  00000+0  18301-2 0  9995
2 25884  52.0169 145.3377 0020635 216.1692 143.7706 11.04372778156779
GLOBALSTAR M054         
1 25885U 99043C   25308.85788969 -.00000038  00000+0  83953-3 0  9993
2 25885  52.0128 248.8789 0005795  56.8941 335.8168 11.39222493135080
GLOBALSTAR M053         
1 25886U 99043D   25308.41951995 -.00000046  00000+0  65825-3 0  9994
2 25886  51.9967 204.8054 0003365 339.7620 191.9964 11.27668042135261
GLOBALSTAR M058         
1 25907U 99049A   25308.79173167 -.00000089  00000+0 -61616-4 0  9995
2 25907  51.9918  93.7182 0002315 161.2980 198.7940 11.93203776558326
GLOBALSTAR M050         
1 25908U 99049B   25308.88360833 -.00000078  00000+0  11442-3 0  9992
2 25908  51.9977  90.6378 0008224 315.0560 213.3209 12.07459721165182
GLOBALSTAR M033         
1 25909U 99049C   25308.49679184 -.00000107  00000+0 -15119-3 0  9991
2 25909  51.9925 313.8432 0013745 193.0455 167.0038 12.20292601552876
GLOBALSTAR M055         
1 25910U 99049D   25308.98761529 -.00000069  00000+0  21389-3 0  9994
2 25910  52.0031 316.3544 0007232  64.1234 296.0363 12.29434972185602
